#aV2006  4 26  0  0   .00000000      96 DD+AD WGS84 FIT  NGA
## 1372 259200.00000000   900.00000000 53851  .0000000000000
+   29     1  2  3  4  5  6  7  8  9 10 11 13 14 15 16 17 18
+         19 20 21 22 23 24 25 26 27 28 29 30  0  0  0  0  0
+          0  0  0  0  0  0  0  0  0  0  0  0  0  0  0  0  0
+          0  0  0  0  0  0  0  0  0  0  0  0  0  0  0  0  0
+          0  0  0  0  0  0  0  0  0  0  0  0  0  0  0  0  0
++         0  0  0  0  0  0  0  0  0  0  0  0  0  0  0  0  0
++         0  0  0  0  0  0  0  0  0  0  0  0  0  0  0  0  0
++         0  0  0  0  0  0  0  0  0  0  0  0  0  0  0  0  0
++         0  0  0  0  0  0  0  0  0  0  0  0  0  0  0  0  0
++         0  0  0  0  0  0  0  0  0  0  0  0  0  0  0  0  0
%c cc cc ccc ccc cccc cccc cccc cccc ccccc ccccc ccccc ccccc
%c cc cc ccc ccc cccc cccc cccc cccc ccccc ccccc ccccc ccccc
%f  0.0000000  0.000000000  0.00000000000  0.000000000000000
%f  0.0000000  0.000000000  0.00000000000  0.000000000000000
%i    0    0    0    0      0      0      0      0         0
%i    0    0    0    0      0      0      0      0         0
/*      NGA, ST. LOUIS,MO.                                  
/*   EPHEMERIS COMPUTED FROM  3 DAYS OF DATA                
/* CCCCCCCCCCCCCCCCCCCCCCCCCCCCCCCCCCCCCCCCCCCCCCCCCCCCCCCCC
/* CCCCCCCCCCCCCCCCCCCCCCCCCCCCCCCCCCCCCCCCCCCCCCCCCCCCCCCCC
*  2006  4 26 13 30   .00000000                                                 
P  1 -10503.689907  18471.151136  16102.281634     49.277659                    
V  1 -17959.405042   9004.967844 -22357.235135       .022851                    
P  2  -1662.937211 -17012.053550  20111.400208     -6.755806                    
V  2  23701.247770  11021.313670  10939.823269       .024083                    
P  3  -3496.677023  19523.819357 -17686.081802     93.685779                    
V  3 -19079.913916  11898.057264  17369.713159       .031401                    
P  4  10625.819155 -11630.155843  21378.600462    215.002305                    
V  4  23824.601950  13202.013902  -4306.033936       .097879                    
P  5 -13458.800210 -17013.199371  15239.668140    -97.487109                    
V  5    -81.741466 -19849.041798 -21782.315839       .611448                    
P  6 -22279.005693   2264.247552  14535.771446    493.844940                    
V  6  13516.316311 -12410.719575  22877.382516       .207538                    
P  7 -19863.687128  17390.622123  -3267.071864    532.014781                    
V  7  -5710.395558   -142.220576  30731.690365       .036876                    
P  8  18242.111073  -4554.321178 -19060.841164    -63.826932                    
V  8  20127.909190  12611.365422  15980.339298      -.011071                    
P  9 -20080.846572 -15825.923985  -8259.914137     17.713251                    
V  9   9734.889714   2032.423584 -29234.525172       .015583                    
P 10  -1344.369308 -26335.998887  -1046.869531     82.411930                    
V 10   2635.524538  -1287.549739  32216.536852       .006447                    
P 11  22047.724261  13409.142201  -6869.534736    323.129290                    
V 11  -9600.847576   1224.306369 -28456.829951       .024681                    
P 13  22502.478639  -3256.158384  13591.786516     57.347491                    
V 13 -14074.167823  10293.945424  25666.419018       .028032                    
P 14 -21123.053712  15735.496108   3271.704388    -15.208404                    
V 14  -4521.244514    437.919865 -31984.876728       .007653                    
P 15 -18547.712647   4177.860207 -18869.208583    602.922675                    
V 15 -19356.400690 -13370.901922  15813.885646       .060908                    
P 16  -2718.699604  25852.587339   5266.977274     39.102495                    
V 16  -3021.804876  -6487.988660  30900.020421       .023257                    
P 17  21576.054191 -15295.298992   1799.037883     86.720689                    
V 17   3503.378914   1197.426740 -31705.211053       .040440                    
P 18 -15215.504960    938.058752 -21644.349597   -232.587695                    
V 18   -291.511984 -27735.461091  -1288.586285      -.017128                    
P 19   7408.194208  13284.187436 -21666.911013    -13.601290                    
V 19 -24255.346213  13530.146258     43.604674       .017056                    
P 20  12852.337503  15758.929017  17011.909305    -27.930065                    
V 20   -625.544514  21843.075900 -19619.630651       .006830                    
P 21 -23519.516988  -2968.182614 -12443.221642     24.314785                    
V 21 -12504.865956  -9822.476730  25346.630369       .028444                    
P 22 -12182.596483  16112.116541 -17091.064755     89.442341                    
V 22  -1735.340497 -22026.749165 -19360.993869       .041462                    
P 23  15686.825145   6556.853840  20352.050813    143.015085                    
V 23 -21390.443060  14783.708133  11517.003247      -.009885                    
P 24  20526.417464  -1884.109628  17128.147900      1.394215                    
V 24  17523.095220  12029.767319 -19696.932159       .030038                    
P 25  -5570.511747  14535.638894  21923.263851     12.816327                    
V 25 -24975.669620 -10022.016610    433.030956      -.014673                    
P 26  -4339.613487 -14405.354593 -22210.953020    -97.526014                    
V 26  23591.056658 -13689.796712   4923.303928      -.108634                    
P 27  24030.139872   2297.567173 -10843.091268     46.023986                    
V 27  12337.025703   8119.403854  27213.813542       .017107                    
P 28  13059.376004 -12386.358571 -19127.104636     28.664947                    
V 28   2247.585738  24965.703069 -14757.885367      -.008576                    
P 29   -115.589714 -16262.086595 -20699.079102    593.414265                    
V 29  22921.436705 -13963.827949  10985.425386       .076206                    
P 30 -15413.513357  -5885.159260  20559.565400    189.540017                    
V 30  -1281.951717 -26759.356672  -8390.750746       .409632                    
EOF
